{
  "type": "FeatureCollection",
  "features": [
    {
      "type": "Feature",
      "properties": {
        "norad_id": 39111,
        "name": "COSMOS 2251 DEB",
        "group": "cosmos-2251-debris",
        "lat": -72.53261900541861,
        "lon": -15.053682229308404,
        "alt_km": 535.7641143885576,
        "timestamp": "2025-12-08T03:50:07.394256+00:00",
        "meta_object_name": "COSMOS 2251 DEB",
        "meta_object_id": "1993-036BUA",
        "meta_epoch": "2025-12-01T22:58:55.551360",
        "meta_mean_motion": 15.11912111,
        "meta_eccentricity": 0.00109111,
        "meta_inclination": 74.0059,
        "meta_ra_of_asc_node": 63.5328,
        "meta_arg_of_pericenter": 39.1207,
        "meta_mean_anomaly": 321.0773,
        "meta_ephemeris_type": 0,
        "meta_classification_type": "U",
        "meta_norad_cat_id": 39111,
        "meta_element_set_no": 999,
        "meta_rev_at_epoch": 8982,
        "meta_bstar": 0.0056424119,
        "meta_mean_motion_dot": 0.00098096,
        "meta_mean_motion_ddot": 0,
        "tle_line1": "1 39111U 93036BUA 25335.95758740  .00098096  00000+0  56424-2 0  9993",
        "tle_line2": "2 39111  74.0059  63.5328 0010911  39.1207 321.0773 15.11912111 89826"
      },
      "geometry": {
        "type": "Point",
        "coordinates": [
          -15.053682229308404,
          -72.53261900541861
        ]
      }
    },
    {
      "type": "Feature",
      "properties": {
        "norad_id": 39546,
        "name": "COSMOS 2251 DEB",
        "group": "cosmos-2251-debris",
        "lat": 27.276390779246732,
        "lon": 154.51736136239774,
        "alt_km": 586.3517414176031,
        "timestamp": "2025-12-08T03:50:07.394266+00:00",
        "meta_object_name": "COSMOS 2251 DEB",
        "meta_object_id": "1993-036BUC",
        "meta_epoch": "2025-12-06T17:54:38.525472",
        "meta_mean_motion": 14.91810332,
        "meta_eccentricity": 0.00438633,
        "meta_inclination": 73.9965,
        "meta_ra_of_asc_node": 148.8493,
        "meta_arg_of_pericenter": 309.6575,
        "meta_mean_anomaly": 50.0741,
        "meta_ephemeris_type": 0,
        "meta_classification_type": "U",
        "meta_norad_cat_id": 39546,
        "meta_element_set_no": 999,
        "meta_rev_at_epoch": 64347,
        "meta_bstar": 0.002282403,
        "meta_mean_motion_dot": 0.00023501,
        "meta_mean_motion_ddot": 0,
        "tle_line1": "1 39546U 93036BUC 25340.74627923  .00023501  00000+0  22824-2 0  9992",
        "tle_line2": "2 39546  73.9965 148.8493 0043863 309.6575  50.0741 14.91810332643477"
      },
      "geometry": {
        "type": "Point",
        "coordinates": [
          154.51736136239774,
          27.276390779246732
        ]
      }
    },
    {
      "type": "Feature",
      "properties": {
        "norad_id": 39547,
        "name": "COSMOS 2251 DEB",
        "group": "cosmos-2251-debris",
        "lat": -14.701460266458133,
        "lon": -147.92662755921825,
        "alt_km": 565.8979059870362,
        "timestamp": "2025-12-08T03:50:07.394276+00:00",
        "meta_object_name": "COSMOS 2251 DEB",
        "meta_object_id": "1993-036BUD",
        "meta_epoch": "2025-12-06T21:23:36.921120",
        "meta_mean_motion": 15.02705271,
        "meta_eccentricity": 0.00049117,
        "meta_inclination": 74.0025,
        "meta_ra_of_asc_node": 30.3495,
        "meta_arg_of_pericenter": 30.2644,
        "meta_mean_anomaly": 145.7961,
        "meta_ephemeris_type": 0,
        "meta_classification_type": "U",
        "meta_norad_cat_id": 39547,
        "meta_element_set_no": 999,
        "meta_rev_at_epoch": 63937,
        "meta_bstar": 0.003687305,
        "meta_mean_motion_dot": 0.00049566,
        "meta_mean_motion_ddot": 0,
        "tle_line1": "1 39547U 93036BUD 25340.89139955  .00049566  00000+0  36873-2 0  9990",
        "tle_line2": "2 39547  74.0025  30.3495 0004911  30.2644 145.7961 15.02705271639377"
      },
      "geometry": {
        "type": "Point",
        "coordinates": [
          -147.92662755921825,
          -14.701460266458133
        ]
      }
    },
    {
      "type": "Feature",
      "properties": {
        "norad_id": 39553,
        "name": "COSMOS 2251 DEB",
        "group": "cosmos-2251-debris",
        "lat": -72.86274575814953,
        "lon": -133.8259380352163,
        "alt_km": 1025.5140141293032,
        "timestamp": "2025-12-08T03:50:07.394286+00:00",
        "meta_object_name": "COSMOS 2251 DEB",
        "meta_object_id": "1993-036BUK",
        "meta_epoch": "2025-12-07T06:00:50.455872",
        "meta_mean_motion": 13.99876591,
        "meta_eccentricity": 0.02014092,
        "meta_inclination": 74.0304,
        "meta_ra_of_asc_node": 339.5232,
        "meta_arg_of_pericenter": 116.8065,
        "meta_mean_anomaly": 245.3825,
        "meta_ephemeris_type": 0,
        "meta_classification_type": "U",
        "meta_norad_cat_id": 39553,
        "meta_element_set_no": 999,
        "meta_rev_at_epoch": 75540,
        "meta_bstar": 0.00088887208,
        "meta_mean_motion_dot": 1.532e-05,
        "meta_mean_motion_ddot": 0,
        "tle_line1": "1 39553U 93036BUK 25341.25058398  .00001532  00000+0  88887-3 0  9993",
        "tle_line2": "2 39553  74.0304 339.5232 0201409 116.8065 245.3825 13.99876591755403"
      },
      "geometry": {
        "type": "Point",
        "coordinates": [
          -133.8259380352163,
          -72.86274575814953
        ]
      }
    },
    {
      "type": "Feature",
      "properties": {
        "norad_id": 39554,
        "name": "COSMOS 2251 DEB",
        "group": "cosmos-2251-debris",
        "lat": -73.6549859988322,
        "lon": -163.63546307246867,
        "alt_km": 545.2640783037195,
        "timestamp": "2025-12-08T03:50:07.394296+00:00",
        "meta_object_name": "COSMOS 2251 DEB",
        "meta_object_id": "1993-036BUL",
        "meta_epoch": "2025-12-06T02:58:28.039296",
        "meta_mean_motion": 15.09497162,
        "meta_eccentricity": 0.00024557,
        "meta_inclination": 74.0206,
        "meta_ra_of_asc_node": 278.2781,
        "meta_arg_of_pericenter": 66.4515,
        "meta_mean_anomaly": 307.3871,
        "meta_ephemeris_type": 0,
        "meta_classification_type": "U",
        "meta_norad_cat_id": 39554,
        "meta_element_set_no": 999,
        "meta_rev_at_epoch": 64285,
        "meta_bstar": 0.0043848661,
        "meta_mean_motion_dot": 0.00070964,
        "meta_mean_motion_ddot": 0,
        "tle_line1": "1 39554U 93036BUL 25340.12393564  .00070964  00000+0  43849-2 0  9999",
        "tle_line2": "2 39554  74.0206 278.2781 0002455  66.4515 307.3871 15.09497162642853"
      },
      "geometry": {
        "type": "Point",
        "coordinates": [
          -163.63546307246867,
          -73.6549859988322
        ]
      }
    },
    {
      "type": "Feature",
      "properties": {
        "norad_id": 39583,
        "name": "COSMOS 2251 DEB",
        "group": "cosmos-2251-debris",
        "lat": 52.48342584433735,
        "lon": -81.92351582615326,
        "alt_km": 618.1984372850129,
        "timestamp": "2025-12-08T03:50:07.394307+00:00",
        "meta_object_name": "COSMOS 2251 DEB",
        "meta_object_id": "1993-036BUN",
        "meta_epoch": "2025-12-07T01:16:51.279456",
        "meta_mean_motion": 14.60251407,
        "meta_eccentricity": 0.01369936,
        "meta_inclination": 73.9332,
        "meta_ra_of_asc_node": 258.1551,
        "meta_arg_of_pericenter": 12.7787,
        "meta_mean_anomaly": 347.6791,
        "meta_ephemeris_type": 0,
        "meta_classification_type": "U",
        "meta_norad_cat_id": 39583,
        "meta_element_set_no": 999,
        "meta_rev_at_epoch": 61696,
        "meta_bstar": 0.0030233023,
        "meta_mean_motion_dot": 0.00016659,
        "meta_mean_motion_ddot": 0,
        "tle_line1": "1 39583U 93036BUN 25341.05337129  .00016659  00000+0  30233-2 0  9993",
        "tle_line2": "2 39583  73.9332 258.1551 0136993  12.7787 347.6791 14.60251407616962"
      },
      "geometry": {
        "type": "Point",
        "coordinates": [
          -81.92351582615326,
          52.48342584433735
        ]
      }
    },
    {
      "type": "Feature",
      "properties": {
        "norad_id": 39585,
        "name": "COSMOS 2251 DEB",
        "group": "cosmos-2251-debris",
        "lat": -73.85370648992169,
        "lon": -148.67417100295208,
        "alt_km": 749.17207465703,
        "timestamp": "2025-12-08T03:50:07.394316+00:00",
        "meta_object_name": "COSMOS 2251 DEB",
        "meta_object_id": "1993-036BUQ",
        "meta_epoch": "2025-11-29T06:16:21.203328",
        "meta_mean_motion": 14.58611374,
        "meta_eccentricity": 0.00652828,
        "meta_inclination": 74.0406,
        "meta_ra_of_asc_node": 326.9733,
        "meta_arg_of_pericenter": 91.8532,
        "meta_mean_anomaly": 269.0111,
        "meta_ephemeris_type": 0,
        "meta_classification_type": "U",
        "meta_norad_cat_id": 39585,
        "meta_element_set_no": 999,
        "meta_rev_at_epoch": 62324,
        "meta_bstar": 0.00023928135,
        "meta_mean_motion_dot": 1.117e-05,
        "meta_mean_motion_ddot": 0,
        "tle_line1": "1 39585U 93036BUQ 25333.26135652  .00001117  00000+0  23928-3 0  9993",
        "tle_line2": "2 39585  74.0406 326.9733 0065282  91.8532 269.0111 14.58611374623244"
      },
      "geometry": {
        "type": "Point",
        "coordinates": [
          -148.67417100295208,
          -73.85370648992169
        ]
      }
    }
  ]
}